IRIDIUM 166             
1 43570U 18061B   24325.86757458  .00000314  00000+0  10514-3 0  9992
2 43570  86.3932 296.3164 0002146  80.2975 279.8463 14.34218310331224
IRIDIUM 158             
1 43571U 18061C   24325.90563119  .00000234  00000+0  76357-4 0  9996
2 43571  86.3931 296.3103 0002437  83.1486 276.9987 14.34218347331194
IRIDIUM 165             
1 43572U 18061D   24325.86123362  .00000170  00000+0  53618-4 0  9998
2 43572  86.3932 296.3641 0002129  88.2413 271.9027 14.34217151331212
IRIDIUM 155             
1 43573U 18061E   24325.33479777  .00000411  00000+0  13963-3 0  9991
2 43573  86.3929 296.4819 0002370  80.7476 279.3988 14.34218657331109
IRIDIUM 154             
1 43574U 18061F   24325.87391803  .00000154  00000+0  47778-4 0  9990
2 43574  86.3930 296.3615 0002260  90.1151 270.0304 14.34217085331236
IRIDIUM 163             
1 43575U 18061G   24325.36651182 -.00000130  00000+0 -53653-4 0  9999
2 43575  86.3924 296.5076 0002352  87.6522 272.4943 14.34216131331133
IRIDIUM 156             
1 43576U 18061H   24325.89928676  .00000165  00000+0  51902-4 0  9994
2 43576  86.3929 296.2911 0002278  77.8743 282.2708 14.34217989331205
IRIDIUM 164             
1 43577U 18061J   24325.88025905  .00000301  00000+0  10037-3 0  9992
2 43577  86.3933 296.3301 0001994  85.6519 274.4905 14.34217938331247
